CCSDS_OMM_VERS = 2.0
CREATION_DATE  = 
ORIGINATOR     = 

OBJECT_NAME    = ISS (ZARYA)
OBJECT_ID      = 1998-067A
CENTER_NAME    = EARTH
REF_FRAME      = TEME
TIME_SYSTEM    = UTC
MEAN_ELEMENT_THEORY = SGP/SGP4

EPOCH          = 2025-11-04T20:58:11.069472
MEAN_MOTION    = 15.49753834
ECCENTRICITY   = .00050432
INCLINATION    = 51.6335
RA_OF_ASC_NODE = 329.9349
ARG_OF_PERICENTER = 17.8705
MEAN_ANOMALY   = 342.2460

EPHEMERIS_TYPE = 0
CLASSIFICATION_TYPE = U
NORAD_CAT_ID   = 25544
ELEMENT_SET_NO = 999
REV_AT_EPOCH   = 53698
BSTAR          = .18804931E-3
MEAN_MOTION_DOT = .10201E-3
MEAN_MOTION_DDOT = 0

CCSDS_OMM_VERS = 2.0
CREATION_DATE  = 
ORIGINATOR     = 

OBJECT_NAME    = CSS (TIANHE)
OBJECT_ID      = 2021-035A
CENTER_NAME    = EARTH
REF_FRAME      = TEME
TIME_SYSTEM    = UTC
MEAN_ELEMENT_THEORY = SGP/SGP4

EPOCH          = 2025-11-04T20:44:22.264512
MEAN_MOTION    = 15.60384612
ECCENTRICITY   = .00062289
INCLINATION    = 41.4668
RA_OF_ASC_NODE = 246.7216
ARG_OF_PERICENTER = 323.7739
MEAN_ANOMALY   = 36.2677

EPHEMERIS_TYPE = 0
CLASSIFICATION_TYPE = U
NORAD_CAT_ID   = 48274
ELEMENT_SET_NO = 999
REV_AT_EPOCH   = 25811
BSTAR          = .33527055E-3
MEAN_MOTION_DOT = .28084E-3
MEAN_MOTION_DDOT = 0

CCSDS_OMM_VERS = 2.0
CREATION_DATE  = 
ORIGINATOR     = 

OBJECT_NAME    = ISS (NAUKA)
OBJECT_ID      = 2021-066A
CENTER_NAME    = EARTH
REF_FRAME      = TEME
TIME_SYSTEM    = UTC
MEAN_ELEMENT_THEORY = SGP/SGP4

EPOCH          = 2025-11-04T20:58:11.069472
MEAN_MOTION    = 15.49753834
ECCENTRICITY   = .00050432
INCLINATION    = 51.6335
RA_OF_ASC_NODE = 329.9349
ARG_OF_PERICENTER = 17.8705
MEAN_ANOMALY   = 342.2460

EPHEMERIS_TYPE = 0
CLASSIFICATION_TYPE = U
NORAD_CAT_ID   = 49044
ELEMENT_SET_NO = 999
REV_AT_EPOCH   = 23044
BSTAR          = .18804931E-3
MEAN_MOTION_DOT = .10201E-3
MEAN_MOTION_DDOT = 0

CCSDS_OMM_VERS = 2.0
CREATION_DATE  = 
ORIGINATOR     = 

OBJECT_NAME    = FREGAT DEB
OBJECT_ID      = 2011-037PF
CENTER_NAME    = EARTH
REF_FRAME      = TEME
TIME_SYSTEM    = UTC
MEAN_ELEMENT_THEORY = SGP/SGP4

EPOCH          = 2025-11-04T04:29:13.370784
MEAN_MOTION    = 12.33798961
ECCENTRICITY   = .0887001
INCLINATION    = 51.6272
RA_OF_ASC_NODE = 313.4362
ARG_OF_PERICENTER = 140.7270
MEAN_ANOMALY   = 226.1466

EPHEMERIS_TYPE = 0
CLASSIFICATION_TYPE = U
NORAD_CAT_ID   = 49271
ELEMENT_SET_NO = 999
REV_AT_EPOCH   = 19717
BSTAR          = .766E-2
MEAN_MOTION_DOT = .3553E-4
MEAN_MOTION_DDOT = 0

CCSDS_OMM_VERS = 2.0
CREATION_DATE  = 
ORIGINATOR     = 

OBJECT_NAME    = CSS (WENTIAN)
OBJECT_ID      = 2022-085A
CENTER_NAME    = EARTH
REF_FRAME      = TEME
TIME_SYSTEM    = UTC
MEAN_ELEMENT_THEORY = SGP/SGP4

EPOCH          = 2025-11-04T20:44:22.264512
MEAN_MOTION    = 15.60384612
ECCENTRICITY   = .00062289
INCLINATION    = 41.4668
RA_OF_ASC_NODE = 246.7216
ARG_OF_PERICENTER = 323.7739
MEAN_ANOMALY   = 36.2677

EPHEMERIS_TYPE = 0
CLASSIFICATION_TYPE = U
NORAD_CAT_ID   = 53239
ELEMENT_SET_NO = 999
REV_AT_EPOCH   = 17384
BSTAR          = .33527055E-3
MEAN_MOTION_DOT = .28084E-3
MEAN_MOTION_DDOT = 0

CCSDS_OMM_VERS = 2.0
CREATION_DATE  = 
ORIGINATOR     = 

OBJECT_NAME    = CSS (MENGTIAN)
OBJECT_ID      = 2022-143A
CENTER_NAME    = EARTH
REF_FRAME      = TEME
TIME_SYSTEM    = UTC
MEAN_ELEMENT_THEORY = SGP/SGP4

EPOCH          = 2025-11-04T20:44:22.264512
MEAN_MOTION    = 15.60384612
ECCENTRICITY   = .00062289
INCLINATION    = 41.4668
RA_OF_ASC_NODE = 246.7216
ARG_OF_PERICENTER = 323.7739
MEAN_ANOMALY   = 36.2677

EPHEMERIS_TYPE = 0
CLASSIFICATION_TYPE = U
NORAD_CAT_ID   = 54216
ELEMENT_SET_NO = 999
REV_AT_EPOCH   = 15864
BSTAR          = .33527055E-3
MEAN_MOTION_DOT = .28084E-3
MEAN_MOTION_DDOT = 0

CCSDS_OMM_VERS = 2.0
CREATION_DATE  = 
ORIGINATOR     = 

OBJECT_NAME    = SOYUZ-MS 27
OBJECT_ID      = 2025-072A
CENTER_NAME    = EARTH
REF_FRAME      = TEME
TIME_SYSTEM    = UTC
MEAN_ELEMENT_THEORY = SGP/SGP4

EPOCH          = 2025-11-04T20:58:11.069472
MEAN_MOTION    = 15.49753834
ECCENTRICITY   = .00050432
INCLINATION    = 51.6335
RA_OF_ASC_NODE = 329.9349
ARG_OF_PERICENTER = 17.8705
MEAN_ANOMALY   = 342.2460

EPHEMERIS_TYPE = 0
CLASSIFICATION_TYPE = U
NORAD_CAT_ID   = 63520
ELEMENT_SET_NO = 999
REV_AT_EPOCH   = 2020
BSTAR          = .18804931E-3
MEAN_MOTION_DOT = .10201E-3
MEAN_MOTION_DDOT = 0

CCSDS_OMM_VERS = 2.0
CREATION_DATE  = 
ORIGINATOR     = 

OBJECT_NAME    = SHENZHOU-20 (SZ-20)
OBJECT_ID      = 2025-082A
CENTER_NAME    = EARTH
REF_FRAME      = TEME
TIME_SYSTEM    = UTC
MEAN_ELEMENT_THEORY = SGP/SGP4

EPOCH          = 2025-11-04T20:44:22.264512
MEAN_MOTION    = 15.60384612
ECCENTRICITY   = .00062289
INCLINATION    = 41.4668
RA_OF_ASC_NODE = 246.7216
ARG_OF_PERICENTER = 323.7739
MEAN_ANOMALY   = 36.2677

EPHEMERIS_TYPE = 0
CLASSIFICATION_TYPE = U
NORAD_CAT_ID   = 63632
ELEMENT_SET_NO = 999
REV_AT_EPOCH   = 25530
BSTAR          = .33527055E-3
MEAN_MOTION_DOT = .28084E-3
MEAN_MOTION_DDOT = 0

CCSDS_OMM_VERS = 2.0
CREATION_DATE  = 
ORIGINATOR     = 

OBJECT_NAME    = PROGRESS-MS 31
OBJECT_ID      = 2025-146A
CENTER_NAME    = EARTH
REF_FRAME      = TEME
TIME_SYSTEM    = UTC
MEAN_ELEMENT_THEORY = SGP/SGP4

EPOCH          = 2025-11-04T20:58:11.069472
MEAN_MOTION    = 15.49753834
ECCENTRICITY   = .00050432
INCLINATION    = 51.6335
RA_OF_ASC_NODE = 329.9349
ARG_OF_PERICENTER = 17.8705
MEAN_ANOMALY   = 342.2460

EPHEMERIS_TYPE = 0
CLASSIFICATION_TYPE = U
NORAD_CAT_ID   = 64751
ELEMENT_SET_NO = 999
REV_AT_EPOCH   = 675
BSTAR          = .18804931E-3
MEAN_MOTION_DOT = .10201E-3
MEAN_MOTION_DDOT = 0

CCSDS_OMM_VERS = 2.0
CREATION_DATE  = 
ORIGINATOR     = 

OBJECT_NAME    = TIANZHOU-9
OBJECT_ID      = 2025-149A
CENTER_NAME    = EARTH
REF_FRAME      = TEME
TIME_SYSTEM    = UTC
MEAN_ELEMENT_THEORY = SGP/SGP4

EPOCH          = 2025-11-04T20:44:22.264512
MEAN_MOTION    = 15.60384612
ECCENTRICITY   = .00062289
INCLINATION    = 41.4668
RA_OF_ASC_NODE = 246.7216
ARG_OF_PERICENTER = 323.7739
MEAN_ANOMALY   = 36.2677

EPHEMERIS_TYPE = 0
CLASSIFICATION_TYPE = U
NORAD_CAT_ID   = 64786
ELEMENT_SET_NO = 999
REV_AT_EPOCH   = 25530
BSTAR          = .33527055E-3
MEAN_MOTION_DOT = .28084E-3
MEAN_MOTION_DDOT = 0

CCSDS_OMM_VERS = 2.0
CREATION_DATE  = 
ORIGINATOR     = 

OBJECT_NAME    = CREW DRAGON 11
OBJECT_ID      = 2025-166A
CENTER_NAME    = EARTH
REF_FRAME      = TEME
TIME_SYSTEM    = UTC
MEAN_ELEMENT_THEORY = SGP/SGP4

EPOCH          = 2025-11-04T20:58:11.069472
MEAN_MOTION    = 15.49753834
ECCENTRICITY   = .00050432
INCLINATION    = 51.6335
RA_OF_ASC_NODE = 329.9349
ARG_OF_PERICENTER = 17.8705
MEAN_ANOMALY   = 342.2460

EPHEMERIS_TYPE = 0
CLASSIFICATION_TYPE = U
NORAD_CAT_ID   = 65077
ELEMENT_SET_NO = 999
REV_AT_EPOCH   = 214
BSTAR          = .18804931E-3
MEAN_MOTION_DOT = .10201E-3
MEAN_MOTION_DDOT = 0

CCSDS_OMM_VERS = 2.0
CREATION_DATE  = 
ORIGINATOR     = 

OBJECT_NAME    = DRAGON CRS-33
OBJECT_ID      = 2025-186A
CENTER_NAME    = EARTH
REF_FRAME      = TEME
TIME_SYSTEM    = UTC
MEAN_ELEMENT_THEORY = SGP/SGP4

EPOCH          = 2025-11-04T20:58:11.069472
MEAN_MOTION    = 15.49753834
ECCENTRICITY   = .00050432
INCLINATION    = 51.6335
RA_OF_ASC_NODE = 329.9349
ARG_OF_PERICENTER = 17.8705
MEAN_ANOMALY   = 342.2460

EPHEMERIS_TYPE = 0
CLASSIFICATION_TYPE = U
NORAD_CAT_ID   = 65304
ELEMENT_SET_NO = 999
REV_AT_EPOCH   = 11
BSTAR          = .18804931E-3
MEAN_MOTION_DOT = .10201E-3
MEAN_MOTION_DDOT = 0

