ISS (ZARYA)             
1 25544U 98067A   25308.87373923  .00010201  00000+0  18805-3 0  9998
2 25544  51.6335 329.9349 0005043  17.8705 342.2460 15.49753834536985
CSS (TIANHE)            
1 48274U 21035A   25308.86414658  .00028084  00000+0  33527-3 0  9990
2 48274  41.4668 246.7216 0006228 323.7739  36.2677 15.60384612258110
ISS (NAUKA)             
1 49044U 21066A   25308.87373923  .00010201  00000+0  18805-3 0  9994
2 49044  51.6335 329.9349 0005043  17.8705 342.2460 15.49753834230448
FREGAT DEB              
1 49271U 11037PF  25308.18696031  .00003553  00000+0  76600-2 0  9993
2 49271  51.6272 313.4362 0887001 140.7270 226.1466 12.33798961197176
CSS (WENTIAN)           
1 53239U 22085A   25308.86414658  .00028084  00000+0  33527-3 0  9993
2 53239  41.4668 246.7216 0006228 323.7739  36.2677 15.60384612173843
CSS (MENGTIAN)          
1 54216U 22143A   25308.86414658  .00028084  00000+0  33527-3 0  9994
2 54216  41.4668 246.7216 0006228 323.7739  36.2677 15.60384612158640
SOYUZ-MS 27             
1 63520U 25072A   25308.87373923  .00010201  00000+0  18805-3 0  9990
2 63520  51.6335 329.9349 0005043  17.8705 342.2460 15.49753834 20204
SHENZHOU-20 (SZ-20)     
1 63632U 25082A   25308.86414658  .00028084  00000+0  33527-3 0  9991
2 63632  41.4668 246.7216 0006228 323.7739  36.2677 15.60384612255303
PROGRESS-MS 31          
1 64751U 25146A   25308.87373923  .00010201  00000+0  18805-3 0  9999
2 64751  51.6335 329.9349 0005043  17.8705 342.2460 15.49753834  6755
TIANZHOU-9              
1 64786U 25149A   25308.86414658  .00028084  00000+0  33527-3 0  9996
2 64786  41.4668 246.7216 0006228 323.7739  36.2677 15.60384612255304
CREW DRAGON 11          
1 65077U 25166A   25308.87373923  .00010201  00000+0  18805-3 0  9993
2 65077  51.6335 329.9349 0005043  17.8705 342.2460 15.49753834  2146
DRAGON CRS-33           
1 65304U 25186A   25308.87373923  .00010201  00000+0  18805-3 0  9998
2 65304  51.6335 329.9349 0005043  17.8705 342.2460 15.49753834   114
